GLOBALSTAR M045 [-]     
1 25676U 99019A   23316.92911885 -.00000032  00000+0  54363-3 0  9991
2 25676  51.9948 164.7713 0001669 103.1759   6.1489 12.27019329121919
GLOBALSTAR M019 [-]     
1 25677U 99019B   23316.75394407 -.00000201  00000+0 -11573-2 0  9992
2 25677  51.9880 254.6666 0000289 193.4737 170.2553 12.13846641114418
GLOBALSTAR M044 [-]     
1 25678U 99019C   23316.77530091 -.00000058  00000+0  35998-3 0  9993
2 25678  51.9940 133.1062 0006336   6.1392   7.1422 11.90227041101974
GLOBALSTAR M042 [-]     
1 25679U 99019D   23316.57666904 -.00000060  00000+0  29804-3 0  9997
2 25679  52.0015 255.6304 0002679 167.1668   3.6226 12.22050923114021
GLOBALSTAR M025 [-]     
1 25770U 99031A   23316.60058049 -.00000076  00000+0 -26341-3 0  9993
2 25770  51.9822  68.8607 0000922 209.7968 247.3194 11.22547031416286
GLOBALSTAR M049 [-]     
1 25771U 99031B   23316.64207278 -.00000139  00000+0 -25650-2 0  9999
2 25771  51.9876  74.2506 0003696 116.7302 243.3873 11.12102444 52612
GLOBALSTAR M047 [-]     
1 25772U 99031C   23316.75771536 -.00000066  00000+0  85550-4 0  9990
2 25772  51.9799 126.6038 0015860 346.8776  13.1616 11.31917288405156
GLOBALSTAR M052 [-]     
1 25773U 99031D   23316.97289183 -.00000054  00000+0  39558-3 0  9990
2 25773  51.9844 190.3659 0001634 314.2910  58.8660 11.15047159413560
