<?xml version="1.0" encoding="UTF-8"?>
<ndm xmlns:xsi="http://www.w3.org/2001/XMLSchema-instance" xsi:noNamespaceSchemaLocation="https://sanaregistry.org/r/ndmxml_unqualified/ndmxml-2.0.0-master-2.0.xsd">
<omm id="CCSDS_OMM_VERS" version="2.0">
<header><CREATION_DATE/><ORIGINATOR/></header><body><segment><metadata><OBJECT_NAME>GLOBALSTAR M045 [-]</OBJECT_NAME><OBJECT_ID>1999-019A</OBJECT_ID><CENTER_NAME>EARTH</CENTER_NAME><REF_FRAME>TEME</REF_FRAME><TIME_SYSTEM>UTC</TIME_SYSTEM><MEAN_ELEMENT_THEORY>SGP4</MEAN_ELEMENT_THEORY></metadata><data><meanElements><EPOCH>2023-11-12T22:17:55.868640</EPOCH><MEAN_MOTION>12.27019329</MEAN_MOTION><ECCENTRICITY>.0001669</ECCENTRICITY><INCLINATION>51.9948</INCLINATION><RA_OF_ASC_NODE>164.7713</RA_OF_ASC_NODE><ARG_OF_PERICENTER>103.1759</ARG_OF_PERICENTER><MEAN_ANOMALY>6.1489</MEAN_ANOMALY></meanElements><tleParameters><EPHEMERIS_TYPE>0</EPHEMERIS_TYPE><CLASSIFICATION_TYPE>U</CLASSIFICATION_TYPE><NORAD_CAT_ID>25676</NORAD_CAT_ID><ELEMENT_SET_NO>999</ELEMENT_SET_NO><REV_AT_EPOCH>12191</REV_AT_EPOCH><BSTAR>.54363E-3</BSTAR><MEAN_MOTION_DOT>-.32E-6</MEAN_MOTION_DOT><MEAN_MOTION_DDOT>0</MEAN_MOTION_DDOT></tleParameters></data></segment></body></omm>
<omm id="CCSDS_OMM_VERS" version="2.0">
<header><CREATION_DATE/><ORIGINATOR/></header><body><segment><metadata><OBJECT_NAME>GLOBALSTAR M019 [-]</OBJECT_NAME><OBJECT_ID>1999-019B</OBJECT_ID><CENTER_NAME>EARTH</CENTER_NAME><REF_FRAME>TEME</REF_FRAME><TIME_SYSTEM>UTC</TIME_SYSTEM><MEAN_ELEMENT_THEORY>SGP4</MEAN_ELEMENT_THEORY></metadata><data><meanElements><EPOCH>2023-11-12T18:05:40.767648</EPOCH><MEAN_MOTION>12.13846641</MEAN_MOTION><ECCENTRICITY>.0000289</ECCENTRICITY><INCLINATION>51.9880</INCLINATION><RA_OF_ASC_NODE>254.6666</RA_OF_ASC_NODE><ARG_OF_PERICENTER>193.4737</ARG_OF_PERICENTER><MEAN_ANOMALY>170.2553</MEAN_ANOMALY></meanElements><tleParameters><EPHEMERIS_TYPE>0</EPHEMERIS_TYPE><CLASSIFICATION_TYPE>U</CLASSIFICATION_TYPE><NORAD_CAT_ID>25677</NORAD_CAT_ID><ELEMENT_SET_NO>999</ELEMENT_SET_NO><REV_AT_EPOCH>11441</REV_AT_EPOCH><BSTAR>-.11573E-2</BSTAR><MEAN_MOTION_DOT>-.201E-5</MEAN_MOTION_DOT><MEAN_MOTION_DDOT>0</MEAN_MOTION_DDOT></tleParameters></data></segment></body></omm>
<omm id="CCSDS_OMM_VERS" version="2.0">
<header><CREATION_DATE/><ORIGINATOR/></header><body><segment><metadata><OBJECT_NAME>GLOBALSTAR M044 [-]</OBJECT_NAME><OBJECT_ID>1999-019C</OBJECT_ID><CENTER_NAME>EARTH</CENTER_NAME><REF_FRAME>TEME</REF_FRAME><TIME_SYSTEM>UTC</TIME_SYSTEM><MEAN_ELEMENT_THEORY>SGP4</MEAN_ELEMENT_THEORY></metadata><data><meanElements><EPOCH>2023-11-12T18:36:25.998624</EPOCH><MEAN_MOTION>11.90227041</MEAN_MOTION><ECCENTRICITY>.0006336</ECCENTRICITY><INCLINATION>51.9940</INCLINATION><RA_OF_ASC_NODE>133.1062</RA_OF_ASC_NODE><ARG_OF_PERICENTER>6.1392</ARG_OF_PERICENTER><MEAN_ANOMALY>7.1422</MEAN_ANOMALY></meanElements><tleParameters><EPHEMERIS_TYPE>0</EPHEMERIS_TYPE><CLASSIFICATION_TYPE>U</CLASSIFICATION_TYPE><NORAD_CAT_ID>25678</NORAD_CAT_ID><ELEMENT_SET_NO>999</ELEMENT_SET_NO><REV_AT_EPOCH>10197</REV_AT_EPOCH><BSTAR>.35998E-3</BSTAR><MEAN_MOTION_DOT>-.58E-6</MEAN_MOTION_DOT><MEAN_MOTION_DDOT>0</MEAN_MOTION_DDOT></tleParameters></data></segment></body></omm>
<omm id="CCSDS_OMM_VERS" version="2.0">
<header><CREATION_DATE/><ORIGINATOR/></header><body><segment><metadata><OBJECT_NAME>GLOBALSTAR M042 [-]</OBJECT_NAME><OBJECT_ID>1999-019D</OBJECT_ID><CENTER_NAME>EARTH</CENTER_NAME><REF_FRAME>TEME</REF_FRAME><TIME_SYSTEM>UTC</TIME_SYSTEM><MEAN_ELEMENT_THEORY>SGP4</MEAN_ELEMENT_THEORY></metadata><data><meanElements><EPOCH>2023-11-12T13:50:24.205056</EPOCH><MEAN_MOTION>12.22050923</MEAN_MOTION><ECCENTRICITY>.0002679</ECCENTRICITY><INCLINATION>52.0015</INCLINATION><RA_OF_ASC_NODE>255.6304</RA_OF_ASC_NODE><ARG_OF_PERICENTER>167.1668</ARG_OF_PERICENTER><MEAN_ANOMALY>3.6226</MEAN_ANOMALY></meanElements><tleParameters><EPHEMERIS_TYPE>0</EPHEMERIS_TYPE><CLASSIFICATION_TYPE>U</CLASSIFICATION_TYPE><NORAD_CAT_ID>25679</NORAD_CAT_ID><ELEMENT_SET_NO>999</ELEMENT_SET_NO><REV_AT_EPOCH>11402</REV_AT_EPOCH><BSTAR>.29804E-3</BSTAR><MEAN_MOTION_DOT>-.6E-6</MEAN_MOTION_DOT><MEAN_MOTION_DDOT>0</MEAN_MOTION_DDOT></tleParameters></data></segment></body></omm>
<omm id="CCSDS_OMM_VERS" version="2.0">
<header><CREATION_DATE/><ORIGINATOR/></header><body><segment><metadata><OBJECT_NAME>GLOBALSTAR M025 [-]</OBJECT_NAME><OBJECT_ID>1999-031A</OBJECT_ID><CENTER_NAME>EARTH</CENTER_NAME><REF_FRAME>TEME</REF_FRAME><TIME_SYSTEM>UTC</TIME_SYSTEM><MEAN_ELEMENT_THEORY>SGP4</MEAN_ELEMENT_THEORY></metadata><data><meanElements><EPOCH>2023-11-12T14:24:50.154336</EPOCH><MEAN_MOTION>11.22547031</MEAN_MOTION><ECCENTRICITY>.0000922</ECCENTRICITY><INCLINATION>51.9822</INCLINATION><RA_OF_ASC_NODE>68.8607</RA_OF_ASC_NODE><ARG_OF_PERICENTER>209.7968</ARG_OF_PERICENTER><MEAN_ANOMALY>247.3194</MEAN_ANOMALY></meanElements><tleParameters><EPHEMERIS_TYPE>0</EPHEMERIS_TYPE><CLASSIFICATION_TYPE>U</CLASSIFICATION_TYPE><NORAD_CAT_ID>25770</NORAD_CAT_ID><ELEMENT_SET_NO>999</ELEMENT_SET_NO><REV_AT_EPOCH>41628</REV_AT_EPOCH><BSTAR>-.26341E-3</BSTAR><MEAN_MOTION_DOT>-.76E-6</MEAN_MOTION_DOT><MEAN_MOTION_DDOT>0</MEAN_MOTION_DDOT></tleParameters></data></segment></body></omm>
<omm id="CCSDS_OMM_VERS" version="2.0">
<header><CREATION_DATE/><ORIGINATOR/></header><body><segment><metadata><OBJECT_NAME>GLOBALSTAR M049 [-]</OBJECT_NAME><OBJECT_ID>1999-031B</OBJECT_ID><CENTER_NAME>EARTH</CENTER_NAME><REF_FRAME>TEME</REF_FRAME><TIME_SYSTEM>UTC</TIME_SYSTEM><MEAN_ELEMENT_THEORY>SGP4</MEAN_ELEMENT_THEORY></metadata><data><meanElements><EPOCH>2023-11-12T15:24:35.088192</EPOCH><MEAN_MOTION>11.12102444</MEAN_MOTION><ECCENTRICITY>.0003696</ECCENTRICITY><INCLINATION>51.9876</INCLINATION><RA_OF_ASC_NODE>74.2506</RA_OF_ASC_NODE><ARG_OF_PERICENTER>116.7302</ARG_OF_PERICENTER><MEAN_ANOMALY>243.3873</MEAN_ANOMALY></meanElements><tleParameters><EPHEMERIS_TYPE>0</EPHEMERIS_TYPE><CLASSIFICATION_TYPE>U</CLASSIFICATION_TYPE><NORAD_CAT_ID>25771</NORAD_CAT_ID><ELEMENT_SET_NO>999</ELEMENT_SET_NO><REV_AT_EPOCH>5261</REV_AT_EPOCH><BSTAR>-.2565E-2</BSTAR><MEAN_MOTION_DOT>-.139E-5</MEAN_MOTION_DOT><MEAN_MOTION_DDOT>0</MEAN_MOTION_DDOT></tleParameters></data></segment></body></omm>
<omm id="CCSDS_OMM_VERS" version="2.0">
<header><CREATION_DATE/><ORIGINATOR/></header><body><segment><metadata><OBJECT_NAME>GLOBALSTAR M047 [-]</OBJECT_NAME><OBJECT_ID>1999-031C</OBJECT_ID><CENTER_NAME>EARTH</CENTER_NAME><REF_FRAME>TEME</REF_FRAME><TIME_SYSTEM>UTC</TIME_SYSTEM><MEAN_ELEMENT_THEORY>SGP4</MEAN_ELEMENT_THEORY></metadata><data><meanElements><EPOCH>2023-11-12T18:11:06.607104</EPOCH><MEAN_MOTION>11.31917288</MEAN_MOTION><ECCENTRICITY>.001586</ECCENTRICITY><INCLINATION>51.9799</INCLINATION><RA_OF_ASC_NODE>126.6038</RA_OF_ASC_NODE><ARG_OF_PERICENTER>346.8776</ARG_OF_PERICENTER><MEAN_ANOMALY>13.1616</MEAN_ANOMALY></meanElements><tleParameters><EPHEMERIS_TYPE>0</EPHEMERIS_TYPE><CLASSIFICATION_TYPE>U</CLASSIFICATION_TYPE><NORAD_CAT_ID>25772</NORAD_CAT_ID><ELEMENT_SET_NO>999</ELEMENT_SET_NO><REV_AT_EPOCH>40515</REV_AT_EPOCH><BSTAR>.8555E-4</BSTAR><MEAN_MOTION_DOT>-.66E-6</MEAN_MOTION_DOT><MEAN_MOTION_DDOT>0</MEAN_MOTION_DDOT></tleParameters></data></segment></body></omm>
<omm id="CCSDS_OMM_VERS" version="2.0">
<header><CREATION_DATE/><ORIGINATOR/></header><body><segment><metadata><OBJECT_NAME>GLOBALSTAR M052 [-]</OBJECT_NAME><OBJECT_ID>1999-031D</OBJECT_ID><CENTER_NAME>EARTH</CENTER_NAME><REF_FRAME>TEME</REF_FRAME><TIME_SYSTEM>UTC</TIME_SYSTEM><MEAN_ELEMENT_THEORY>SGP4</MEAN_ELEMENT_THEORY></metadata><data><meanElements><EPOCH>2023-11-12T23:20:57.854112</EPOCH><MEAN_MOTION>11.15047159</MEAN_MOTION><ECCENTRICITY>.0001634</ECCENTRICITY><INCLINATION>51.9844</INCLINATION><RA_OF_ASC_NODE>190.3659</RA_OF_ASC_NODE><ARG_OF_PERICENTER>314.2910</ARG_OF_PERICENTER><MEAN_ANOMALY>58.8660</MEAN_ANOMALY></meanElements><tleParameters><EPHEMERIS_TYPE>0</EPHEMERIS_TYPE><CLASSIFICATION_TYPE>U</CLASSIFICATION_TYPE><NORAD_CAT_ID>25773</NORAD_CAT_ID><ELEMENT_SET_NO>999</ELEMENT_SET_NO><REV_AT_EPOCH>41356</REV_AT_EPOCH><BSTAR>.39558E-3</BSTAR><MEAN_MOTION_DOT>-.54E-6</MEAN_MOTION_DOT><MEAN_MOTION_DDOT>0</MEAN_MOTION_DDOT></tleParameters></data></segment></body></omm>

</ndm>
